{
  "type": "FeatureCollection",
  "features": [
    {
      "type": "Feature",
      "properties": {
        "norad_id": 24946,
        "name": "IRIDIUM 33",
        "group": "iridium-33-debris",
        "lat": 86.28910861458046,
        "lon": 165.00402173183153,
        "alt_km": 764.5718976932967,
        "timestamp": "2025-12-27T10:28:59.178892+00:00",
        "meta_object_name": "IRIDIUM 33",
        "meta_object_id": "1997-051C",
        "meta_epoch": "2025-12-27T03:22:02.338176",
        "meta_mean_motion": 14.35047353,
        "meta_eccentricity": 0.0008713,
        "meta_inclination": 86.3856,
        "meta_ra_of_asc_node": 62.1762,
        "meta_arg_of_pericenter": 154.5165,
        "meta_mean_anomaly": 205.6463,
        "meta_ephemeris_type": 0,
        "meta_classification_type": "U",
        "meta_norad_cat_id": 24946,
        "meta_element_set_no": 999,
        "meta_rev_at_epoch": 48041,
        "meta_bstar": 0.00012488,
        "meta_mean_motion_dot": 3.76e-06,
        "meta_mean_motion_ddot": 0,
        "tle_line1": "1 24946U 97051C   25361.14030484  .00000376  00000+0  12488-3 0  9999",
        "tle_line2": "2 24946  86.3856  62.1762 0008713 154.5165 205.6463 14.35047353480411"
      },
      "geometry": {
        "type": "Point",
        "coordinates": [
          165.00402173183153,
          86.28910861458046
        ]
      }
    },
    {
      "type": "Feature",
      "properties": {
        "norad_id": 33773,
        "name": "IRIDIUM 33 DEB",
        "group": "iridium-33-debris",
        "lat": 57.00130391363661,
        "lon": -131.2036568107084,
        "alt_km": 733.2418779740055,
        "timestamp": "2025-12-27T10:28:59.178940+00:00",
        "meta_object_name": "IRIDIUM 33 DEB",
        "meta_object_id": "1997-051L",
        "meta_epoch": "2025-12-27T03:15:41.131872",
        "meta_mean_motion": 14.43287196,
        "meta_eccentricity": 0.0013363,
        "meta_inclination": 86.3995,
        "meta_ra_of_asc_node": 54.4881,
        "meta_arg_of_pericenter": 105.2608,
        "meta_mean_anomaly": 255.0072,
        "meta_ephemeris_type": 0,
        "meta_classification_type": "U",
        "meta_norad_cat_id": 33773,
        "meta_element_set_no": 999,
        "meta_rev_at_epoch": 88555,
        "meta_bstar": 0.00032996,
        "meta_mean_motion_dot": 1.132e-05,
        "meta_mean_motion_ddot": 0,
        "tle_line1": "1 33773U 97051L   25361.13589273  .00001132  00000+0  32996-3 0  9998",
        "tle_line2": "2 33773  86.3995  54.4881 0013363 105.2608 255.0072 14.43287196885550"
      },
      "geometry": {
        "type": "Point",
        "coordinates": [
          -131.2036568107084,
          57.00130391363661
        ]
      }
    },
    {
      "type": "Feature",
      "properties": {
        "norad_id": 33775,
        "name": "IRIDIUM 33 DEB",
        "group": "iridium-33-debris",
        "lat": 67.91245407634142,
        "lon": -145.7413349198261,
        "alt_km": 736.0444988381669,
        "timestamp": "2025-12-27T10:28:59.178980+00:00",
        "meta_object_name": "IRIDIUM 33 DEB",
        "meta_object_id": "1997-051N",
        "meta_epoch": "2025-12-27T03:33:14.523264",
        "meta_mean_motion": 14.41499559,
        "meta_eccentricity": 0.0015398,
        "meta_inclination": 86.3623,
        "meta_ra_of_asc_node": 43.4012,
        "meta_arg_of_pericenter": 112.022,
        "meta_mean_anomaly": 302.4506,
        "meta_ephemeris_type": 0,
        "meta_classification_type": "U",
        "meta_norad_cat_id": 33775,
        "meta_element_set_no": 999,
        "meta_rev_at_epoch": 88348,
        "meta_bstar": 0.00036781,
        "meta_mean_motion_dot": 1.215e-05,
        "meta_mean_motion_ddot": 0,
        "tle_line1": "1 33775U 97051N   25361.14808476  .00001215  00000+0  36781-3 0  9998",
        "tle_line2": "2 33775  86.3623  43.4012 0015398 112.0220 302.4506 14.41499559883485"
      },
      "geometry": {
        "type": "Point",
        "coordinates": [
          -145.7413349198261,
          67.91245407634142
        ]
      }
    },
    {
      "type": "Feature",
      "properties": {
        "norad_id": 33776,
        "name": "IRIDIUM 33 DEB",
        "group": "iridium-33-debris",
        "lat": 9.335818926556298,
        "lon": -105.98889242938942,
        "alt_km": 755.8284049560034,
        "timestamp": "2025-12-27T10:28:59.179002+00:00",
        "meta_object_name": "IRIDIUM 33 DEB",
        "meta_object_id": "1997-051P",
        "meta_epoch": "2025-12-27T04:57:30.068064",
        "meta_mean_motion": 14.38259865,
        "meta_eccentricity": 0.0015921,
        "meta_inclination": 86.403,
        "meta_ra_of_asc_node": 74.7003,
        "meta_arg_of_pericenter": 144.8264,
        "meta_mean_anomaly": 274.4731,
        "meta_ephemeris_type": 0,
        "meta_classification_type": "U",
        "meta_norad_cat_id": 33776,
        "meta_element_set_no": 999,
        "meta_rev_at_epoch": 88290,
        "meta_bstar": 0.00029106,
        "meta_mean_motion_dot": 9.05e-06,
        "meta_mean_motion_ddot": 0,
        "tle_line1": "1 33776U 97051P   25361.20659801  .00000905  00000+0  29106-3 0  9990",
        "tle_line2": "2 33776  86.4030  74.7003 0015921 144.8264 274.4731 14.38259865882903"
      },
      "geometry": {
        "type": "Point",
        "coordinates": [
          -105.98889242938942,
          9.335818926556298
        ]
      }
    },
    {
      "type": "Feature",
      "properties": {
        "norad_id": 33777,
        "name": "IRIDIUM 33 DEB",
        "group": "iridium-33-debris",
        "lat": 21.606484262985887,
        "lon": -152.62934074142757,
        "alt_km": 702.942542787363,
        "timestamp": "2025-12-27T10:28:59.179023+00:00",
        "meta_object_name": "IRIDIUM 33 DEB",
        "meta_object_id": "1997-051Q",
        "meta_epoch": "2025-12-27T03:09:33.575904",
        "meta_mean_motion": 14.55714011,
        "meta_eccentricity": 0.0006547,
        "meta_inclination": 86.3776,
        "meta_ra_of_asc_node": 28.9411,
        "meta_arg_of_pericenter": 189.6871,
        "meta_mean_anomaly": 170.4212,
        "meta_ephemeris_type": 0,
        "meta_classification_type": "U",
        "meta_norad_cat_id": 33777,
        "meta_element_set_no": 999,
        "meta_rev_at_epoch": 88743,
        "meta_bstar": 0.00095765,
        "meta_mean_motion_dot": 4.207e-05,
        "meta_mean_motion_ddot": 0,
        "tle_line1": "1 33777U 97051Q   25361.13163861  .00004207  00000+0  95765-3 0  9992",
        "tle_line2": "2 33777  86.3776  28.9411 0006547 189.6871 170.4212 14.55714011887439"
      },
      "geometry": {
        "type": "Point",
        "coordinates": [
          -152.62934074142757,
          21.606484262985887
        ]
      }
    },
    {
      "type": "Feature",
      "properties": {
        "norad_id": 33850,
        "name": "IRIDIUM 33 DEB",
        "group": "iridium-33-debris",
        "lat": 51.1555489853373,
        "lon": -160.69858848909558,
        "alt_km": 737.2965533497463,
        "timestamp": "2025-12-27T10:28:59.179036+00:00",
        "meta_object_name": "IRIDIUM 33 DEB",
        "meta_object_id": "1997-051T",
        "meta_epoch": "2025-12-27T03:33:49.339008",
        "meta_mean_motion": 14.42184716,
        "meta_eccentricity": 0.0013374,
        "meta_inclination": 86.3409,
        "meta_ra_of_asc_node": 23.9831,
        "meta_arg_of_pericenter": 118.3203,
        "meta_mean_anomaly": 314.3735,
        "meta_ephemeris_type": 0,
        "meta_classification_type": "U",
        "meta_norad_cat_id": 33850,
        "meta_element_set_no": 999,
        "meta_rev_at_epoch": 88360,
        "meta_bstar": 0.00050244,
        "meta_mean_motion_dot": 1.675e-05,
        "meta_mean_motion_ddot": 0,
        "tle_line1": "1 33850U 97051T   25361.14848772  .00001675  00000+0  50244-3 0  9995",
        "tle_line2": "2 33850  86.3409  23.9831 0013374 118.3203 314.3735 14.42184716883602"
      },
      "geometry": {
        "type": "Point",
        "coordinates": [
          -160.69858848909558,
          51.1555489853373
        ]
      }
    },
    {
      "type": "Feature",
      "properties": {
        "norad_id": 33853,
        "name": "IRIDIUM 33 DEB",
        "group": "iridium-33-debris",
        "lat": 35.36283641862222,
        "lon": -13.787622595464073,
        "alt_km": 1030.892272626087,
        "timestamp": "2025-12-27T10:28:59.179048+00:00",
        "meta_object_name": "IRIDIUM 33 DEB",
        "meta_object_id": "1997-051W",
        "meta_epoch": "2025-12-26T22:39:28.276128",
        "meta_mean_motion": 13.99129868,
        "meta_eccentricity": 0.0207854,
        "meta_inclination": 86,
        "meta_ra_of_asc_node": 343.582,
        "meta_arg_of_pericenter": 192.009,
        "meta_mean_anomaly": 244.3161,
        "meta_ephemeris_type": 0,
        "meta_classification_type": "U",
        "meta_norad_cat_id": 33853,
        "meta_element_set_no": 999,
        "meta_rev_at_epoch": 85544,
        "meta_bstar": 0.0013824,
        "meta_mean_motion_dot": 2.427e-05,
        "meta_mean_motion_ddot": 0,
        "tle_line1": "1 33853U 97051W   25360.94407727  .00002427  00000+0  13824-2 0  9994",
        "tle_line2": "2 33853  86.0000 343.5820 0207854 192.0090 244.3161 13.99129868855443"
      },
      "geometry": {
        "type": "Point",
        "coordinates": [
          -13.787622595464073,
          35.36283641862222
        ]
      }
    }
  ]
}